NIMIQ 2                 
1 27632U 02062A   26189.24937921 -.00000061  00000+0  00000+0 0  9999
2 27632   9.4916  56.6704 0005359  49.8480 160.2844  1.00270339 44394
ANIK F2                 
1 28378U 04027A   26189.54879418 -.00000037  00000+0  00000+0 0  9992
2 28378   3.3395  79.1592 0003681  27.8575 265.9266  1.00271075 41473
ANIK F1R                
1 28868U 05036A   26189.45667622 -.00000063  00000+0  00000+0 0  9998
2 28868   4.3638  76.3162 0003888  22.4401 244.7572  1.00271472 46660
ANIK F3                 
1 31102U 07009A   26189.54732083  .00000013  00000+0  00000+0 0  9993
2 31102   1.2495  83.6025 0002570  30.4010 250.8137  1.00271677 46777
NIMIQ 4                 
1 33373U 08044A   26189.55460088  .00000000  00000+0  00000+0 0  9995
2 33373   0.0266  54.1079 0002062  78.1562 271.9185  1.00266373 65192
TELSTAR 11N             
1 34111U 09009A   26189.49208337 -.00000236  00000+0  00000+0 0  9990
2 34111   0.0266  76.7018 0002377  30.2014 319.1415  1.00272886 46451
TERRESTAR-1             
1 35496U 09035A   26189.54888084 -.00000046  00000+0  00000+0 0  9994
2 35496   5.1917  48.7860 0002605  50.9542 273.3452  1.00272415 62346
NIMIQ 5                 
1 35873U 09050A   26189.55642088 -.00000242  00000+0  00000+0 0  9991
2 35873   0.0558 261.7445 0002649 203.2680 309.1055  1.00270141 61553
SKYTERRA 1              
1 37218U 10061A   26189.55078752 -.00000107  00000+0  00000+0 0  9991
2 37218   5.1678  50.8121 0002229  34.8030 297.8389  1.00270931 57405
TELSTAR 14R             
1 37602U 11021A   26189.55832756 -.00000265  00000+0  00000+0 0  9992
2 37602   0.0690  84.3956 0001801 355.8308 344.2883  1.00271459 56048
NIMIQ 6                 
1 38342U 12026A   26189.55278087 -.00000159  00000+0  00000+0 0  9993
2 38342   0.0224 300.5830 0002613 171.7139 282.1007  1.00270441 50622
ANIK G1                 
1 39127U 13014A   26188.90800477 -.00000059  00000+0  00000+0 0  9994
2 39127   0.0190  43.3354 0001696  71.3777  30.7310  1.00271419 48461
TELSTAR 12V             
1 41036U 15068A   26188.71237491 -.00000104  00000+0  00000+0 0  9997
2 41036   0.0185  70.6764 0002243  35.3256  61.1281  1.00270650 38837
VIASAT-2                
1 42740U 17029A   26189.27183770 -.00000250  00000+0  00000+0 0  9993
2 42740   0.0228 291.8287 0000195 250.9562 131.4309  1.00270571 33417
LEO 1 (LEO VANTAGE 1)   
1 43113U 18004C   26189.24462881  .00003199  00000+0  22323-3 0  9992
2 43113  99.2415 110.2830 0349969  15.0091 346.1183 14.67983538440575
TELSTAR 19V             
1 43562U 18059A   26189.48705668 -.00000265  00000+0  00000+0 0  9995
2 43562   0.0371 178.0427 0002894 310.2084 270.5350  1.00270658 29353
TELSTAR 18V             
1 43611U 18069A   26189.59816037 -.00000279  00000+0  00000+0 0  9991
2 43611   0.0204 296.1794 0001814 175.0493 168.6692  1.00270592 28851
AMOS-17                 
1 44479U 19050A   26189.28899778  .00000124  00000+0  00000+0 0  9992
2 44479   0.0214 330.9476 0001424 138.7012 297.6106  1.00271058 25396
